NORAD_CAT_ID,OBJECT_NAME,OBJECT_TYPE,EPOCH,MEAN_MOTION,ECCENTRICITY,INCLINATION,RA_OF_ASC_NODE,ARG_OF_PERICENTER,MEAN_ANOMALY,BSTAR,MEAN_MOTION_DOT,MEAN_MOTION_DDOT,TLE_LINE0,TLE_LINE1,TLE_LINE2,SEMIMAJOR_AXIS,PERIOD,APOGEE,PERIGEE,DECAYED
56799.0,STARLINK-5953,PAYLOAD,2024-06-28 03:49:16,14.98335468,0.0002629,70.0004,106.3883,262.8193,97.2667,9.8197e-07,-8.1e-07,0.0,0 STARLINK-5953,1 56799U 23078AJ  24180.15922232 -.00000081  00000-0  98197-6 0  9997,2 56799  70.0004 106.3883 0002629 262.8193  97.2667 14.98335468 60147,6950.176,96.107,573.868,570.214,0.0
56799.0,STARLINK-5953,PAYLOAD,2024-06-28 11:49:57,14.98336324,0.0002579,70.0009,105.5475,265.4281,94.6583,-8.1581e-05,-1.066e-05,0.0,0 STARLINK-5953,1 56799U 23078AJ  24180.49302304 -.00001066  00000-0 -81581-4 0  9998,2 56799  70.0009 105.5475 0002579 265.4281  94.6583 14.98336324 59936,6950.173,96.107,573.831,570.246,0.0
56799.0,STARLINK-5953,PAYLOAD,2024-06-28 23:02:53,14.98329956,0.0002579,70.0005,104.369,264.6154,95.471,5.1506e-05,5.22e-06,0.0,0 STARLINK-5953,1 56799U 23078AJ  24180.96034353  .00000522  00000-0  51506-4 0  9994,2 56799  70.0005 104.3690 0002579 264.6154  95.4710 14.98329956 60002,6950.193,96.107,573.85,570.266,0.0
56799.0,STARLINK-5953,PAYLOAD,2024-06-29 03:51:17,14.98332261,0.0002544,70.0006,103.8642,264.1749,95.912,7.5571e-05,8.09e-06,0.0,0 STARLINK-5953,1 56799U 23078AJ  24181.16062155  .00000809  00000-0  75571-4 0  9994,2 56799  70.0006 103.8642 0002544 264.1749  95.9120 14.98332261 60295,6950.186,96.107,573.819,570.283,0.0
56799.0,STARLINK-5953,PAYLOAD,2024-06-29 11:51:58,14.98329303,0.0003223,69.9991,103.0156,289.8605,70.2207,-8.6503e-05,-1.125e-05,0.0,0 STARLINK-5953,1 56799U 23078AJ  24181.49442803 -.00001125  00000-0 -86503-4 0  9993,2 56799  69.9991 103.0156 0003223 289.8605  70.2207 14.98329303 60348,6950.195,96.107,574.3,569.82,0.0
56799.0,STARLINK-5953,PAYLOAD,2024-06-29 19:52:39,14.98316964,0.0002794,70.0004,102.1813,265.4367,94.6473,-0.00014123,-1.777e-05,0.0,0 STARLINK-5953,1 56799U 23078AJ  24181.82823943 -.00001777  00000-0 -14123-3 0  9999,2 56799  70.0004 102.1813 0002794 265.4367  94.6473 14.98316964 60392,6950.233,96.108,574.04,570.156,0.0
56799.0,STARLINK-5953,PAYLOAD,2024-06-29 23:04:56,14.98316236,0.0002819,70.0004,101.8446,265.4916,94.5921,-0.00014507,-1.823e-05,0.0,0 STARLINK-5953,1 56799U 23078AJ  24181.96176098 -.00001823  00000-0 -14507-3 0  9994,2 56799  70.0004 101.8446 0002819 265.4916  94.5921 14.98316236 60151,6950.235,96.108,574.06,570.141,0.0
56799.0,STARLINK-5953,PAYLOAD,2024-06-30 11:53:59,14.98328791,0.000282,70.0005,100.498,266.9399,93.1437,5.4812e-06,-2.8e-07,0.0,0 STARLINK-5953,1 56799U 23078AJ  24182.49583177 -.00000028  00000-0  54812-5 0  9993,2 56799  70.0005 100.4980 0002820 266.9399  93.1437 14.98328791 60238,6950.197,96.107,574.022,570.102,0.0
56799.0,STARLINK-5953,PAYLOAD,2024-06-30 21:30:47,14.98338451,0.0002907,70.0001,99.4877,266.8129,93.2698,0.00014199,1.602e-05,0.0,0 STARLINK-5953,1 56799U 23078AJ  24182.89638147  .00001602  00000-0  14199-3 0  9995,2 56799  70.0001  99.4877 0002907 266.8129  93.2698 14.98338451 60551,6950.167,96.106,574.052,570.011,0.0
56799.0,STARLINK-5953,PAYLOAD,2024-07-01 03:55:19,14.98344324,0.0002862,70.0001,98.8146,262.4054,97.678,0.00019207,2.2e-05,0.0,0 STARLINK-5953,1 56799U 23078AJ  24183.16341555  .00002200  00000-0  19207-3 0  9990,2 56799  70.0001  98.8146 0002862 262.4054  97.6780 14.98344324 60334,6950.149,96.106,574.003,570.024,0.0
56799.0,STARLINK-5953,PAYLOAD,2024-07-01 21:32:48,14.98324187,0.0003041,70.0004,96.9634,266.3269,93.7542,0.00018447,2.108e-05,0.0,0 STARLINK-5953,1 56799U 23078AJ  24183.89778737  .00002108  00000-0  18447-3 0  9998,2 56799  70.0004  96.9634 0003041 266.3269  93.7542 14.98324187 60708,6950.211,96.107,574.189,569.962,0.0
56799.0,STARLINK-5953,PAYLOAD,2024-07-02 11:58:01,14.98328534,0.0003204,69.9998,95.4471,270.6304,89.4488,2.6508e-05,2.23e-06,0.0,0 STARLINK-5953,1 56799U 23078AJ  24184.49862908  .00000223  00000-0  26508-4 0  9993,2 56799  69.9998  95.4471 0003204 270.6304  89.4488 14.98328534 60531,6950.197,96.107,574.289,569.836,0.0
56799.0,STARLINK-5953,PAYLOAD,2024-07-02 21:34:49,14.98332722,0.0003097,70.0,94.4373,270.8685,89.2119,-9.7399e-05,-1.255e-05,0.0,0 STARLINK-5953,1 56799U 23078AJ  24184.89918937 -.00001255  00000-0 -97399-4 0  9995,2 56799  70.0000  94.4373 0003097 270.8685  89.2119 14.98332722 60850,6950.184,96.107,574.202,569.897,0.0
56799.0,STARLINK-5953,PAYLOAD,2024-07-03 03:59:21,14.98340684,0.0002989,70.0,93.764,266.9809,93.1008,-4.6234e-05,-6.45e-06,0.0,0 STARLINK-5953,1 56799U 23078AJ  24185.16622163 -.00000645  00000-0 -46234-4 0  9993,2 56799  70.0000  93.7640 0002989 266.9809  93.1008 14.98340684 60893,6950.16,96.106,574.102,569.947,0.0
56799.0,STARLINK-5953,PAYLOAD,2024-07-03 20:00:42,14.98327884,0.0003077,70.0003,92.081,275.588,84.4928,0.00011581,1.289e-05,0.0,0 STARLINK-5953,1 56799U 23078AJ  24185.83382339  .00001289  00000-0  11581-3 0  9994,2 56799  70.0003  92.0810 0003077 275.5880  84.4928 14.98327884 60993,6950.199,96.107,574.203,569.926,0.0
56799.0,STARLINK-5953,PAYLOAD,2024-07-03 21:36:50,14.98328485,0.0002867,70.0003,91.9127,271.0881,88.995,9.4384e-05,1.033e-05,0.0,0 STARLINK-5953,1 56799U 23078AJ  24185.90058364  .00001033  00000-0  94384-4 0  9990,2 56799  70.0003  91.9127 0002867 271.0881  88.9950 14.98328485 60745,6950.198,96.107,574.055,570.07,0.0
56799.0,STARLINK-5953,PAYLOAD,2024-07-04 10:25:54,14.98332939,0.0002992,70.0001,90.5658,271.8813,88.2004,1.7614e-05,1.17e-06,0.0,0 STARLINK-5953,1 56799U 23078AJ  24186.43466177  .00000117  00000-0  17614-4 0  9997,2 56799  70.0001  90.5658 0002992 271.8813  88.2004 14.98332939 60820,6950.184,96.107,574.128,569.969,0.0
56799.0,STARLINK-5953,PAYLOAD,2024-07-04 20:02:43,14.98331918,0.0002879,70.0001,89.5559,271.717,88.3659,5.2341e-05,5.32e-06,0.0,0 STARLINK-5953,1 56799U 23078AJ  24186.83522171  .00000532  00000-0  52341-4 0  9995,2 56799  70.0001  89.5559 0002879 271.7170  88.3659 14.98331918 61146,6950.187,96.107,574.053,570.051,0.0
56799.0,STARLINK-5953,PAYLOAD,2024-07-04 21:38:51,14.98332152,0.0002878,70.0001,89.3876,271.7579,88.3251,5.3701e-05,5.48e-06,0.0,0 STARLINK-5953,1 56799U 23078AJ  24186.90198144  .00000548  00000-0  53701-4 0  9990,2 56799  70.0001  89.3876 0002878 271.7579  88.3251 14.98332152 60898,6950.186,96.107,574.051,570.051,0.0
56799.0,STARLINK-5953,PAYLOAD,2024-07-05 10:27:55,14.98332153,0.0002787,70.0002,88.0412,268.6898,91.3942,4.3529e-05,4.26e-06,0.0,0 STARLINK-5953,1 56799U 23078AJ  24187.43606057  .00000426  00000-0  43529-4 0  9998,2 56799  70.0002  88.0412 0002787 268.6898  91.3942 14.98332153 60970,6950.186,96.107,573.988,570.114,0.0
56799.0,STARLINK-5953,PAYLOAD,2024-07-05 20:04:44,14.98328836,0.0002811,70.0,87.0316,267.9365,92.1472,-5.4645e-07,-9.9e-07,0.0,0 STARLINK-5953,1 56799U 23078AJ  24187.83662281 -.00000099  00000-0 -54645-6 0  9994,2 56799  70.0000  87.0316 0002811 267.9365  92.1472 14.98328836 61295,6950.196,96.107,574.015,570.108,0.0
56799.0,STARLINK-5953,PAYLOAD,2024-07-05 21:40:52,14.98329361,0.0002813,70.0002,86.8637,267.6953,92.3884,-1.6512e-05,-2.9e-06,0.0,0 STARLINK-5953,1 56799U 23078AJ  24187.90338293 -.00000290  00000-0 -16512-4 0  9997,2 56799  70.0002  86.8637 0002813 267.6953  92.3884 14.98329361 61048,6950.195,96.107,574.015,570.105,0.0
56799.0,STARLINK-5953,PAYLOAD,2024-07-06 10:29:56,14.98332886,0.0002846,70.0002,85.5162,269.9112,90.1721,-2.3662e-05,-3.75e-06,0.0,0 STARLINK-5953,1 56799U 23078AJ  24188.43745993 -.00000375  00000-0 -23662-4 0  9993,2 56799  70.0002  85.5162 0002846 269.9112  90.1721 14.98332886 61126,6950.184,96.107,574.027,570.071,0.0
56799.0,STARLINK-5953,PAYLOAD,2024-07-06 20:06:45,14.98329205,0.0002779,70.0001,84.5066,268.7968,91.2873,-2.0976e-05,-3.43e-06,0.0,0 STARLINK-5953,1 56799U 23078AJ  24188.83802221 -.00000343  00000-0 -20976-4 0  9995,2 56799  70.0001  84.5066 0002779 268.7968  91.2873 14.98329205 61444,6950.195,96.107,573.992,570.129,0.0
56799.0,STARLINK-5953,PAYLOAD,2024-07-06 21:42:53,14.98328577,0.000279,70.0001,84.3382,268.7059,91.378,-2.7728e-05,-4.24e-06,0.0,0 STARLINK-5953,1 56799U 23078AJ  24188.90478279 -.00000424  00000-0 -27728-4 0  9997,2 56799  70.0001  84.3382 0002790 268.7059  91.3780 14.98328577 61198,6950.197,96.107,574.001,570.123,0.0
56799.0,STARLINK-5953,PAYLOAD,2024-07-07 02:31:17,14.98328716,0.0002987,69.9999,83.8332,269.2743,90.8074,-8.979e-06,-2e-06,0.0,0 STARLINK-5953,1 56799U 23078AJ  24189.10506201 -.00000200  00000-0 -89790-5 0  9997,2 56799  69.9999  83.8332 0002987 269.2743  90.8074 14.98328716 61223,6950.197,96.107,574.138,569.986,0.0
56799.0,STARLINK-5953,PAYLOAD,2024-07-07 20:08:45,14.98328781,0.0002902,69.9997,81.9814,268.2319,91.8508,7.3011e-05,7.78e-06,0.0,0 STARLINK-5953,1 56799U 23078AJ  24189.83941986  .00000778  00000-0  73011-4 0  9996,2 56799  69.9997  81.9814 0002902 268.2319  91.8508 14.98328781 61595,6950.197,96.107,574.079,570.045,0.0
56799.0,STARLINK-5953,PAYLOAD,2024-07-08 10:33:58,14.98331545,0.0002919,69.9998,80.4653,269.7342,90.3483,3.1759e-05,2.86e-06,0.0,0 STARLINK-5953,1 56799U 23078AJ  24190.44025856  .00000286  00000-0  31759-4 0  9991,2 56799  69.9998  80.4653 0002919 269.7342  90.3483 14.98331545 61421,6950.188,96.107,574.082,570.024,0.0
56799.0,STARLINK-5953,PAYLOAD,2024-07-08 20:10:47,14.98325717,0.0003016,69.9994,79.4549,266.8754,93.206,4.8904e-05,4.9e-06,0.0,0 STARLINK-5953,1 56799U 23078AJ  24190.84082192  .00000490  00000-0  48904-4 0  9998,2 56799  69.9994  79.4549 0003016 266.8754  93.2060 14.98325717 61745,6950.206,96.107,574.167,569.975,0.0
56799.0,STARLINK-5953,PAYLOAD,2024-07-08 21:46:55,14.98325206,0.000308,69.9994,79.2866,266.3705,93.7102,6.3993e-05,6.71e-06,0.0,0 STARLINK-5953,1 56799U 23078AJ  24190.90758185  .00000671  00000-0  63993-4 0  9993,2 56799  69.9994  79.2866 0003080 266.3705  93.7102 14.98325206 61494,6950.208,96.107,574.213,569.932,0.0
